OBJECT_NAME,OBJECT_ID,EPOCH,MEAN_MOTION,ECCENTRICITY,INCLINATION,RA_OF_ASC_NODE,ARG_OF_PERICENTER,MEAN_ANOMALY,EPHEMERIS_TYPE,CLASSIFICATION_TYPE,NORAD_CAT_ID,ELEMENT_SET_NO,REV_AT_EPOCH,BSTAR,MEAN_MOTION_DOT,MEAN_MOTION_DDOT
STARLINK-36792,2026-032H,2026-06-26T23:11:38.221440,15.33453187,.00007862,97.2868,5.5304,96.8509,263.2823,0,U,67804,999,2170,.9454122E-3,.30578E-3,0
STARLINK-36782,2026-032J,2026-06-26T19:08:53.386368,15.33442571,.00013749,97.2864,5.4550,90.2346,269.9054,0,U,67805,999,2168,.66244537E-3,.2137E-3,0
STARLINK-36389,2026-032K,2026-06-26T22:48:08.618400,15.33451224,.00011772,97.2851,5.5520,83.0937,277.0440,0,U,67806,999,2170,.69306722E-3,.2237E-3,0
STARLINK-36382,2026-032L,2026-06-26T22:44:13.727904,15.33450487,.00009802,97.2863,5.5558,74.1215,286.0136,0,U,67807,999,2170,.77494366E-3,.2503E-3,0
STARLINK-36811,2026-032M,2026-06-26T19:12:48.337344,15.33443076,.00013942,97.2863,5.4520,93.1182,267.0220,0,U,67808,999,2168,.6941467E-3,.224E-3,0
STARLINK-36795,2026-032N,2026-06-26T22:59:53.576736,15.33445832,.00010303,97.2859,5.5422,92.4249,267.7112,0,U,67809,999,2170,.73683466E-3,.23788E-3,0
STARLINK-36807,2026-032P,2026-06-26T11:26:52.710144,15.33439872,.0001624,97.2855,5.1261,100.2026,259.9400,0,U,67810,999,2163,.64634E-3,.20846E-3,0
STARLINK-36733,2026-032Q,2026-06-26T18:57:08.473824,15.33441635,.00009345,97.2860,5.4671,94.0706,266.0643,0,U,67811,999,2168,.49116427E-3,.15813E-3,0
STARLINK-36377,2026-032R,2026-06-26T11:03:23.213376,15.33450470,.0001684,97.2867,5.1458,89.1528,270.9908,0,U,67812,999,2163,.80375E-3,.25967E-3,0
STARLINK-36732,2026-032S,2026-06-26T19:01:03.313344,15.33447027,.00013332,97.2854,5.4609,94.5251,265.6144,0,U,67813,999,2168,.53994279E-3,.17398E-3,0
STARLINK-36767,2026-032T,2026-06-26T22:52:03.735264,15.33447933,.00011898,97.2852,5.5490,88.5628,271.5751,0,U,67814,999,2170,.75763209E-3,.24466E-3,0
STARLINK-36797,2026-032U,2026-06-26T11:34:44.416128,15.33442983,.0001617,97.2853,5.1165,93.7045,266.4383,0,U,67815,999,2163,.58785E-3,.1895E-3,0
STARLINK-36343,2026-032V,2026-06-26T18:49:18.552000,15.33443306,.0001244,97.2861,5.4750,101.5258,258.6124,0,U,67816,999,2168,.58208113E-3,.18762E-3,0
STARLINK-36756,2026-032W,2026-06-26T22:12:54.584064,15.33451894,.00014106,97.2868,5.5885,93.4863,266.6541,0,U,67817,999,2169,.97469217E-3,.3153E-3,0
STARLINK-36346,2026-032X,2026-06-26T18:45:23.622624,15.33427907,.00019142,97.2857,5.4775,102.0427,258.1030,0,U,67818,999,2168,.49922593E-3,.16068E-3,0
STARLINK-36788,2026-032Y,2026-06-26T11:38:37.538016,15.33444601,.0001566,97.2857,5.1161,94.5528,265.5893,0,U,67819,999,2163,.78287E-3,.25284E-3,0
STARLINK-36353,2026-032Z,2026-06-26T22:28:34.169376,15.33453282,.00011955,97.2863,5.5734,53.8199,306.3154,0,U,67820,999,2170,.77735886E-3,.25111E-3,0
STARLINK-36644,2026-033A,2026-06-26T19:28:24.238560,15.27569339,.00023007,42.9998,10.7179,284.9830,75.0767,0,U,67821,999,2136,.76084056E-3,.20727E-3,0
STARLINK-36643,2026-033B,2026-06-26T21:39:34.205472,15.27558253,.00023601,43.0017,10.5551,266.7588,93.2994,0,U,67822,999,2137,.98176993E-3,.26835E-3,0
STARLINK-36646,2026-033C,2026-06-26T22:45:58.163904,15.27570907,.00015713,43.0014,10.0287,269.3035,90.7637,0,U,67823,999,2138,.8912133E-3,.24336E-3,0
STARLINK-36647,2026-033D,2026-06-26T20:57:00.577440,15.27565126,.00013828,43.0021,10.3237,264.5016,95.5678,0,U,67824,999,2137,.96042824E-3,.26249E-3,0
STARLINK-36648,2026-033E,2026-06-26T22:05:14.971488,15.27592405,.00014634,43.0033,9.8010,261.9608,98.1077,0,U,67825,999,2138,.66599783E-3,.18117E-3,0
STARLINK-35865,2026-033F,2026-06-26T19:33:55.501344,15.27610151,.00008112,43.0007,10.7452,254.5517,105.5245,0,U,67826,999,2136,.76281074E-3,.20807E-3,0
STARLINK-36289,2026-033G,2026-06-26T21:48:48.157344,15.27596141,.000147,43.0016,10.6001,266.6628,93.4056,0,U,67827,999,2137,.49545696E-3,.13403E-3,0
STARLINK-36670,2026-033H,2026-06-26T21:43:16.203360,15.27562045,.00017674,43.0015,10.5667,275.5754,84.4896,0,U,67828,999,2137,.10125459E-2,.27691E-3,0
STARLINK-36144,2026-033J,2026-06-26T21:35:52.196352,15.27563257,.000167,43.0019,10.5235,273.6551,86.4109,0,U,67829,999,2137,.10406914E-2,.28472E-3,0
STARLINK-36611,2026-033K,2026-06-26T14:10:59.297376,15.27564766,.000153,43.0037,12.5079,261.9409,98.1269,0,U,67830,999,2132,.49684E-3,.13428E-3,0
STARLINK-36661,2026-033L,2026-06-26T21:56:13.649568,15.27590642,.00012851,43.0025,10.6388,272.2798,87.7906,0,U,67831,999,2137,.66057903E-3,.17966E-3,0
STARLINK-36662,2026-033M,2026-06-26T21:15:01.323072,15.27560435,.00013243,43.0032,3.3558,246.4482,113.6230,0,U,67832,999,2145,.40471455E-3,.10885E-3,0
STARLINK-36659,2026-033N,2026-06-26T22:27:27.707040,15.27577754,.00022506,43.0034,9.9211,287.3368,72.7237,0,U,67833,999,2138,.65408332E-3,.17779E-3,0
