STARLINK-36792          
1 67804U 26032H   26177.96641460  .00030578  00000+0  94541-3 0  9995
2 67804  97.2868   5.5304 0000786  96.8509 263.2823 15.33453187 21708
STARLINK-36782          
1 67805U 26032J   26177.79784012  .00021370  00000+0  66245-3 0  9998
2 67805  97.2864   5.4550 0001374  90.2346 269.9054 15.33442571 21689
STARLINK-36389          
1 67806U 26032K   26177.95009975  .00022370  00000+0  69307-3 0  9998
2 67806  97.2851   5.5520 0001177  83.0937 277.0440 15.33451224 21708
STARLINK-36382          
1 67807U 26032L   26177.94738111  .00025030  00000+0  77494-3 0  9991
2 67807  97.2863   5.5558 0000980  74.1215 286.0136 15.33450487 21706
STARLINK-36811          
1 67808U 26032M   26177.80055946  .00022400  00000+0  69415-3 0  9997
2 67808  97.2863   5.4520 0001394  93.1182 267.0220 15.33443076 21685
STARLINK-36795          
1 67809U 26032N   26177.95825899  .00023788  00000+0  73683-3 0  9998
2 67809  97.2859   5.5422 0001030  92.4249 267.7112 15.33445832 21708
STARLINK-36807          
1 67810U 26032P   26177.47699896  .00020846  00000+0  64634-3 0  9991
2 67810  97.2855   5.1261 0001624 100.2026 259.9400 15.33439872 21635
STARLINK-36733          
1 67811U 26032Q   26177.78968141  .00015813  00000+0  49116-3 0  9994
2 67811  97.2860   5.4671 0000934  94.0706 266.0643 15.33441635 21681
STARLINK-36377          
1 67812U 26032R   26177.46068534  .00025967  00000+0  80375-3 0  9990
2 67812  97.2867   5.1458 0001684  89.1528 270.9908 15.33450470 21639
STARLINK-36732          
1 67813U 26032S   26177.79239946  .00017398  00000+0  53994-3 0  9990
2 67813  97.2854   5.4609 0001333  94.5251 265.6144 15.33447027 21683
STARLINK-36767          
1 67814U 26032T   26177.95282101  .00024466  00000+0  75763-3 0  9992
2 67814  97.2852   5.5490 0001189  88.5628 271.5751 15.33447933 21700
STARLINK-36797          
1 67815U 26032U   26177.48245852  .00018950  00000+0  58785-3 0  9999
2 67815  97.2853   5.1165 0001617  93.7045 266.4383 15.33442983 21630
STARLINK-36343          
1 67816U 26032V   26177.78424250  .00018762  00000+0  58208-3 0  9995
2 67816  97.2861   5.4750 0001244 101.5258 258.6124 15.33443306 21684
STARLINK-36756          
1 67817U 26032W   26177.92563176  .00031530  00000+0  97469-3 0  9993
2 67817  97.2868   5.5885 0001410  93.4863 266.6541 15.33451894 21692
STARLINK-36346          
1 67818U 26032X   26177.78152341  .00016068  00000+0  49923-3 0  9997
2 67818  97.2857   5.4775 0001914 102.0427 258.1030 15.33427907 21686
STARLINK-36788          
1 67819U 26032Y   26177.48515669  .00025284  00000+0  78287-3 0  9996
2 67819  97.2857   5.1161 0001566  94.5528 265.5893 15.33444601 21637
STARLINK-36353          
1 67820U 26032Z   26177.93650659  .00025111  00000+0  77736-3 0  9994
2 67820  97.2863   5.5734 0001195  53.8199 306.3154 15.33453282 21703
STARLINK-36644          
1 67821U 26033A   26177.81139165  .00020727  00000+0  76084-3 0  9990
2 67821  42.9998  10.7179 0002300 284.9830  75.0767 15.27569339 21365
STARLINK-36643          
1 67822U 26033B   26177.90247923  .00026835  00000+0  98177-3 0  9996
2 67822  43.0017  10.5551 0002360 266.7588  93.2994 15.27558253 21374
STARLINK-36646          
1 67823U 26033C   26177.94858986  .00024336  00000+0  89121-3 0  9991
2 67823  43.0014  10.0287 0001571 269.3035  90.7637 15.27570907 21389
STARLINK-36647          
1 67824U 26033D   26177.87292335  .00026249  00000+0  96043-3 0  9990
2 67824  43.0021  10.3237 0001382 264.5016  95.5678 15.27565126 21376
STARLINK-36648          
1 67825U 26033E   26177.92031217  .00018117  00000+0  66600-3 0  9998
2 67825  43.0033   9.8010 0001463 261.9608  98.1077 15.27592405 21383
STARLINK-35865          
1 67826U 26033F   26177.81522571  .00020807  00000+0  76281-3 0  9990
2 67826  43.0007  10.7452 0000811 254.5517 105.5245 15.27610151 21366
STARLINK-36289          
1 67827U 26033G   26177.90889071  .00013403  00000+0  49546-3 0  9990
2 67827  43.0016  10.6001 0001470 266.6628  93.4056 15.27596141 21373
STARLINK-36670          
1 67828U 26033H   26177.90504865  .00027691  00000+0  10125-2 0  9990
2 67828  43.0015  10.5667 0001767 275.5754  84.4896 15.27562045 21376
STARLINK-36144          
1 67829U 26033J   26177.89990968  .00028472  00000+0  10407-2 0  9993
2 67829  43.0019  10.5235 0001670 273.6551  86.4109 15.27563257 21374
STARLINK-36611          
1 67830U 26033K   26177.59096409  .00013428  00000+0  49684-3 0  9994
2 67830  43.0037  12.5079 0001530 261.9409  98.1269 15.27564766 21329
STARLINK-36661          
1 67831U 26033L   26177.91404687  .00017966  00000+0  66058-3 0  9997
2 67831  43.0025  10.6388 0001285 272.2798  87.7906 15.27590642 21371
STARLINK-36662          
1 67832U 26033M   26177.88543198  .00010885  00000+0  40471-3 0  9999
2 67832  43.0032   3.3558 0001324 246.4482 113.6230 15.27560435 21450
STARLINK-36659          
1 67833U 26033N   26177.93573735  .00017779  00000+0  65408-3 0  9992
2 67833  43.0034   9.9211 0002250 287.3368  72.7237 15.27577754 21383
